{"type": "FeatureCollection", "features": [ {"type": "Feature", "properties": {"norad_id": 41556, "name": "ZIYUAN 3-02 (ZY 3-02)", "group": "resource", "lat": 20.508902035728582, "lon": 71.75005131234397, "alt_km": 510.03408707403923, "timestamp": "2025-12-26T14:28:47.346454+00:00", "meta": {"OBJECT_NAME": "ZIYUAN 3-02 (ZY 3-02)", "OBJECT_ID": "2016-033A", "EPOCH": "2025-12-26T06:29:44.253312", "MEAN_MOTION": 15.21247096, "ECCENTRICITY": 0.00115361, "INCLINATION": 97.4023, "RA_OF_ASC_NODE": 74.2105, "ARG_OF_PERICENTER": 195.7365, "MEAN_ANOMALY": 164.3514, "EPHEMERIS_TYPE": 0, "CLASSIFICATION_TYPE": "U", "NORAD_CAT_ID": 41556, "ELEMENT_SET_NO": 999, "REV_AT_EPOCH": 53169, "BSTAR": 0.00032868399, "MEAN_MOTION_DOT": 7.286e-05, "MEAN_MOTION_DDOT": 0}, "tle": {"line1": "1 41556U 16033A   25360.27065108  .00007286  00000+0  32868-3 0  9991", "line2": "2 41556  97.4023  74.2105 0011536 195.7365 164.3514 15.21247096531694"}}, "geometry": {"type": "Point", "coordinates": [71.75005131234397, 20.508902035728582]}}, {"type": "Feature", "properties": {"norad_id": 41599, "name": "CARTOSAT-2C", "group": "resource", "lat": -42.263316282303215, "lon": -129.14333197020918, "alt_km": 521.4715809624386, "timestamp": "2025-12-26T14:28:47.346464+00:00", "meta": {"OBJECT_NAME": "CARTOSAT-2C", "OBJECT_ID": "2016-040A", "EPOCH": "2025-12-26T07:10:47.529408", "MEAN_MOTION": 15.19241009, "ECCENTRICITY": 0.0010584, "INCLINATION": 97.4746, "RA_OF_ASC_NODE": 57.4082, "ARG_OF_PERICENTER": 19.9395, "MEAN_ANOMALY": 340.2251, "EPHEMERIS_TYPE": 0, "CLASSIFICATION_TYPE": "U", "NORAD_CAT_ID": 41599, "ELEMENT_SET_NO": 999, "REV_AT_EPOCH": 52746, "BSTAR": 0.00026415539, "MEAN_MOTION_DOT": 5.505e-05, "MEAN_MOTION_DDOT": 0}, "tle": {"line1": "1 41599U 16040A   25360.29916122  .00005505  00000+0  26416-3 0  9993", "line2": "2 41599  97.4746  57.4082 0010584  19.9395 340.2251 15.19241009527460"}}, "geometry": {"type": "Point", "coordinates": [-129.14333197020918, -42.263316282303215]}}, {"type": "Feature", "properties": {"norad_id": 41601, "name": "SKYSAT-C1", "group": "resource", "lat": -49.611819396413516, "lon": -151.44581699655689, "alt_km": 474.22492685319776, "timestamp": "2025-12-26T14:28:47.346474+00:00", "meta": {"OBJECT_NAME": "SKYSAT-C1", "OBJECT_ID": "2016-040C", "EPOCH": "2025-12-26T00:56:42.616032", "MEAN_MOTION": 15.32828423, "ECCENTRICITY": 8.319e-05, "INCLINATION": 96.9807, "RA_OF_ASC_NODE": 36.3031, "ARG_OF_PERICENTER": 314.1232, "MEAN_ANOMALY": 45.9943, "EPHEMERIS_TYPE": 0, "CLASSIFICATION_TYPE": "U", "NORAD_CAT_ID": 41601, "ELEMENT_SET_NO": 999, "REV_AT_EPOCH": 53131, "BSTAR": 0.00029756447, "MEAN_MOTION_DOT": 9.364e-05, "MEAN_MOTION_DDOT": 0}, "tle": {"line1": "1 41601U 16040C   25360.03938213  .00009364  00000+0  29756-3 0  9991", "line2": "2 41601  96.9807  36.3031 0000831 314.1232  45.9943 15.32828423531312"}}, "geometry": {"type": "Point", "coordinates": [-151.44581699655689, -49.611819396413516]}}, {"type": "Feature", "properties": {"norad_id": 41603, "name": "LAPAN-A3", "group": "resource", "lat": -40.760088013818596, "lon": 3.862309007663969, "alt_km": 473.1244583728512, "timestamp": "2025-12-26T14:28:47.346485+00:00", "meta": {"OBJECT_NAME": "LAPAN-A3", "OBJECT_ID": "2016-040E", "EPOCH": "2025-12-26T06:49:09.478272", "MEAN_MOTION": 15.31663168, "ECCENTRICITY": 0.00086422, "INCLINATION": 97.1437, "RA_OF_ASC_NODE": 357.3484, "ARG_OF_PERICENTER": 277.3175, "MEAN_ANOMALY": 82.7085, "EPHEMERIS_TYPE": 0, "CLASSIFICATION_TYPE": "U", "NORAD_CAT_ID": 41603, "ELEMENT_SET_NO": 999, "REV_AT_EPOCH": 52833, "BSTAR": 0.00015247468, "MEAN_MOTION_DOT": 4.592e-05, "MEAN_MOTION_DDOT": 0}, "tle": {"line1": "1 41603U 16040E   25360.28413748  .00004592  00000+0  15247-3 0  9999", "line2": "2 41603  97.1437 357.3484 0008642 277.3175  82.7085 15.31663168528334"}}, "geometry": {"type": "Point", "coordinates": [3.862309007663969, -40.760088013818596]}}, {"type": "Feature", "properties": {"norad_id": 41604, "name": "BIROS", "group": "resource", "lat": -66.09157591215816, "lon": 48.89452808297909, "alt_km": 297.02798593833177, "timestamp": "2025-12-26T14:28:47.346496+00:00", "meta": {"OBJECT_NAME": "BIROS", "OBJECT_ID": "2016-040F", "EPOCH": "2025-12-26T01:12:43.306272", "MEAN_MOTION": 15.95194722, "ECCENTRICITY": 0.00039995, "INCLINATION": 97.0651, "RA_OF_ASC_NODE": 32.0679, "ARG_OF_PERICENTER": 121.8836, "MEAN_ANOMALY": 238.283, "EPHEMERIS_TYPE": 0, "CLASSIFICATION_TYPE": "U", "NORAD_CAT_ID": 41604, "ELEMENT_SET_NO": 999, "REV_AT_EPOCH": 53084, "BSTAR": 0.00059208615, "MEAN_MOTION_DOT": 0.00229911, "MEAN_MOTION_DDOT": 2.2392825e-05}, "tle": {"line1": "1 41604U 16040F   25360.05050123  .00229911  22393-4  59209-3 0  9993", "line2": "2 41604  97.0651  32.0679 0003999 121.8836 238.2830 15.95194722530842"}}, "geometry": {"type": "Point", "coordinates": [48.89452808297909, -66.09157591215816]}}, {"type": "Feature", "properties": {"norad_id": 41727, "name": "GAOFEN-3", "group": "resource", "lat": -37.05384862418379, "lon": 12.386543144622443, "alt_km": 757.5415048358054, "timestamp": "2025-12-26T14:28:47.346506+00:00", "meta": {"OBJECT_NAME": "GAOFEN-3", "OBJECT_ID": "2016-049A", "EPOCH": "2025-12-26T07:59:35.436192", "MEAN_MOTION": 14.42217632, "ECCENTRICITY": 0.00010829, "INCLINATION": 98.4039, "RA_OF_ASC_NODE": 5.7118, "ARG_OF_PERICENTER": 54.6678, "MEAN_ANOMALY": 305.4613, "EPHEMERIS_TYPE": 0, "CLASSIFICATION_TYPE": "U", "NORAD_CAT_ID": 41727, "ELEMENT_SET_NO": 999, "REV_AT_EPOCH": 49373, "BSTAR": 0.00010944611, "MEAN_MOTION_DOT": 3.17e-06, "MEAN_MOTION_DDOT": 0}, "tle": {"line1": "1 41727U 16049A   25360.33304903  .00000317  00000+0  10945-3 0  9994", "line2": "2 41727  98.4039   5.7118 0001082  54.6678 305.4613 14.42217632493735"}}, "geometry": {"type": "Point", "coordinates": [12.386543144622443, -37.05384862418379]}}, {"type": "Feature", "properties": {"norad_id": 41771, "name": "SKYSAT-C4", "group": "resource", "lat": -68.80467525703835, "lon": 43.41598078634023, "alt_km": 447.3764557205013, "timestamp": "2025-12-26T14:28:47.346516+00:00", "meta": {"OBJECT_NAME": "SKYSAT-C4", "OBJECT_ID": "2016-058B", "EPOCH": "2025-12-26T00:46:17.167296", "MEAN_MOTION": 15.42627652, "ECCENTRICITY": 0.000262, "INCLINATION": 96.9364, "RA_OF_ASC_NODE": 24.5747, "ARG_OF_PERICENTER": 122.1279, "MEAN_ANOMALY": 238.0225, "EPHEMERIS_TYPE": 0, "CLASSIFICATION_TYPE": "U", "NORAD_CAT_ID": 41771, "ELEMENT_SET_NO": 999, "REV_AT_EPOCH": 51872, "BSTAR": 0.00035000874, "MEAN_MOTION_DOT": 0.00015166, "MEAN_MOTION_DDOT": 0}, "tle": {"line1": "1 41771U 16058B   25360.03214314  .00015166  00000+0  35001-3 0  9994", "line2": "2 41771  96.9364  24.5747 0002620 122.1279 238.0225 15.42627652518727"}}, "geometry": {"type": "Point", "coordinates": [43.41598078634023, -68.80467525703835]}}, {"type": "Feature", "properties": {"norad_id": 41772, "name": "SKYSAT-C5", "group": "resource", "lat": 31.254900881891405, "lon": -131.90292178578133, "alt_km": 461.22158632093306, "timestamp": "2025-12-26T14:28:47.346526+00:00", "meta": {"OBJECT_NAME": "SKYSAT-C5", "OBJECT_ID": "2016-058C", "EPOCH": "2025-12-26T02:52:36.392160", "MEAN_MOTION": 15.3411733, "ECCENTRICITY": 0.00040435, "INCLINATION": 97.0738, "RA_OF_ASC_NODE": 43.3114, "ARG_OF_PERICENTER": 226.167, "MEAN_ANOMALY": 133.924, "EPHEMERIS_TYPE": 0, "CLASSIFICATION_TYPE": "U", "NORAD_CAT_ID": 41772, "ELEMENT_SET_NO": 999, "REV_AT_EPOCH": 51721, "BSTAR": 0.00028335025, "MEAN_MOTION_DOT": 9.284e-05, "MEAN_MOTION_DDOT": 0}, "tle": {"line1": "1 41772U 16058C   25360.11986565  .00009284  00000+0  28335-3 0  9994", "line2": "2 41772  97.0738  43.3114 0004043 226.1670 133.9240 15.34117330517214"}}, "geometry": {"type": "Point", "coordinates": [-131.90292178578133, 31.254900881891405]}}, {"type": "Feature", "properties": {"norad_id": 41773, "name": "SKYSAT-C2", "group": "resource", "lat": -35.015503939118524, "lon": 29.507080145694495, "alt_km": 458.0021586724906, "timestamp": "2025-12-26T14:28:47.346537+00:00", "meta": {"OBJECT_NAME": "SKYSAT-C2", "OBJECT_ID": "2016-058D", "EPOCH": "2025-12-26T00:34:32.744640", "MEAN_MOTION": 15.37567448, "ECCENTRICITY": 0.00026524, "INCLINATION": 97.0353, "RA_OF_ASC_NODE": 23.9884, "ARG_OF_PERICENTER": 353.6257, "MEAN_ANOMALY": 6.4955, "EPHEMERIS_TYPE": 0, "CLASSIFICATION_TYPE": "U", "NORAD_CAT_ID": 41773, "ELEMENT_SET_NO": 999, "REV_AT_EPOCH": 51840, "BSTAR": 0.00032600272, "MEAN_MOTION_DOT": 0.00011946, "MEAN_MOTION_DDOT": 0}, "tle": {"line1": "1 41773U 16058D   25360.02399010  .00011946  00000+0  32600-3 0  9996", "line2": "2 41773  97.0353  23.9884 0002652 353.6257   6.4955 15.37567448518408"}}, "geometry": {"type": "Point", "coordinates": [29.507080145694495, -35.015503939118524]}}, {"type": "Feature", "properties": {"norad_id": 41774, "name": "SKYSAT-C3", "group": "resource", "lat": 26.812703328992033, "lon": -142.77034475281596, "alt_km": 429.8534939613146, "timestamp": "2025-12-26T14:28:47.346547+00:00", "meta": {"OBJECT_NAME": "SKYSAT-C3", "OBJECT_ID": "2016-058E", "EPOCH": "2025-12-26T01:23:02.725152", "MEAN_MOTION": 15.44872099, "ECCENTRICITY": 0.00021358, "INCLINATION": 96.9285, "RA_OF_ASC_NODE": 33.1854, "ARG_OF_PERICENTER": 105.3287, "MEAN_ANOMALY": 254.82, "EPHEMERIS_TYPE": 0, "CLASSIFICATION_TYPE": "U", "NORAD_CAT_ID": 41774, "ELEMENT_SET_NO": 999, "REV_AT_EPOCH": 51931, "BSTAR": 0.00040459757, "MEAN_MOTION_DOT": 0.00018932, "MEAN_MOTION_DDOT": 0}, "tle": {"line1": "1 41774U 16058E   25360.05767043  .00018932  00000+0  40460-3 0  9990", "line2": "2 41774  96.9285  33.1854 0002135 105.3287 254.8200 15.44872099519314"}}, "geometry": {"type": "Point", "coordinates": [-142.77034475281596, 26.812703328992033]}}]}